0 GORIZONT 29
1 22907U 93072A   13278.72076532 -.00000362  00000-0  10000-3 0  1587
2 22907 013.5784 030.5064 0008201 221.5226 138.4233 01.00134725 72768
0 GORIZONT 29
1 22907U 93072A   13281.71660491 -.00000365  00000-0  10000-3 0  1597
2 22907 013.5817 030.4719 0007869 223.3178 136.6189 01.00133111 72797
0 GORIZONT 29
1 22907U 93072A   13285.71115768 -.00000368  00000-0  10000-3 0  1608
2 22907 013.5866 030.4259 0007873 226.7970 133.1307 01.00130959 72838
0 GORIZONT 29
1 22907U 93072A   13286.70981695 -.00000367  00000-0  10000-3 0  1618
2 22907 013.5880 030.4143 0008423 230.0218 129.8973 01.00130405 72849
0 GORIZONT 29
1 22907U 93072A   13286.70982598 -.00000367  00000-0  10000-3 0  1622
2 22907 013.5880 030.4142 0008453 232.3983 127.5190 01.00130377 72849
0 GORIZONT 29
1 22907U 93072A   13287.70847746 -.00000366  00000-0  10000-3 0  1638
2 22907 013.5893 030.4025 0008758 235.4915 124.4165 01.00129845 72857
0 GORIZONT 29
1 22907U 93072A   13288.70712370 -.00000364  00000-0  10000-3 0  1642
2 22907 013.5908 030.3910 0009350 236.8692 123.0257 01.00129327 72865
0 GORIZONT 29
1 22907U 93072A   13289.70577813 -.00000362  00000-0  10000-3 0  1653
2 22907 013.5927 030.3796 0010047 236.5024 123.3797 01.00128800 72877
0 GORIZONT 29
1 22907U 93072A   13292.70179701 -.00000353  00000-0  10000-3 0  1662
2 22907 013.5968 030.3454 0009801 234.8068 125.0681 01.00127243 72903
